TYVAK-0130              
1 48606U 21041BF  26068.48452211  .00008857  00000+0  35198-3 0  9997
2 48606  52.9967 128.6030 0008953 215.1647 144.8760 15.26049141265157
STARLINK-35692          
1 66513U 25263AE  26068.14409341  .00028183  00000+0  10285-2 0  9996
2 66513  43.0000 353.9242 0000937 256.6074 103.4673 15.27618533 18810
